ONEWEB-0431             
1 51630U 22012J   23287.36812024  .00001851  00000+0  52659-2 0  9993
2 51630  87.8902 230.2453 0001671  52.9905 307.1375 13.10370180 81419
ONEWEB-0434             
1 51631U 22012K   23287.57458546 -.00000523  00000+0 -15357-2 0  9993
2 51631  87.8894 230.2124 0002143  73.1513 286.9849 13.10371411 81429
ONEWEB-0435             
1 51632U 22012L   23287.58271416 -.00000136  00000+0 -42555-3 0  9995
2 51632  87.8895 230.1999 0002161  65.8369 294.2984 13.10377310 81412
ONEWEB-0436             
1 51633U 22012M   23287.52178100 -.00000023  00000+0 -92930-4 0  9994
2 51633  87.9194 199.9669 0002043  69.8315 290.3036 13.17651789 85068
ONEWEB-0438             
1 51634U 22012N   23287.56646622 -.00000626  00000+0 -18295-2 0  9997
2 51634  87.8892 230.2036 0002033  80.0559 280.0797 13.10369151 81444
ONEWEB-0439             
1 51635U 22012P   23287.56972257 -.00000633  00000+0 -18503-2 0  9994
2 51635  87.8894 230.1864 0001905  74.9435 285.1903 13.10374925 81425
ONEWEB-0442             
1 51636U 22012Q   23287.28552513  .00000170  00000+0  40453-3 0  9997
2 51636  87.9256 200.0262 0001415 102.6715 257.4574 13.17647801 85022
ONEWEB-0443             
1 51637U 22012R   23287.45639198  .00000081  00000+0  17643-3 0  9998
2 51637  87.9256 199.9977 0002410  71.3797 288.7596 13.17650367 85099
